TIANMU-1 13             
1 58647U 23205C   24283.55135707  .00013870  00000+0  69675-3 0  9998
2 58647  97.3989 305.7530 0008949 355.5971   4.5183 15.17354261 43828
TIANMU-1 14             
1 58648U 23205D   24283.40333318  .00017833  00000+0  89434-3 0  9999
2 58648  97.3917 305.3619 0009745 359.1058   1.0156 15.17350606 43804
TIANMU-1 19             
1 58660U 23208A   24283.47123202  .00021262  00000+0  10621-2 0  9994
2 58660  97.4169  33.2160 0005885 332.1798  27.9120 15.17477901 43489
TIANMU-1 20             
1 58661U 23208B   24283.40405529  .00022584  00000+0  10877-2 0  9994
2 58661  97.4102  33.1802 0008862 342.9255  17.1680 15.18721367 43496
TIANMU-1 21             
1 58662U 23208C   24283.58574408  .00018337  00000+0  85540-3 0  9998
2 58662  97.4145  33.8456 0008441 342.0985  17.9951 15.19875423 43549
TIANMU-1 22             
1 58663U 23208D   24283.54720585  .00016560  00000+0  82089-3 0  9995
2 58663  97.4162  33.3625 0004611   2.4236 357.7019 15.17805460 43501
TIANMU-1 15             
1 58700U 24004A   24283.46573160  .00018135  00000+0  90596-3 0  9990
2 58700  97.4640 102.6511 0009879  23.0722 337.0953 15.17482966 42080
TIANMU-1 16             
1 58701U 24004B   24283.57761870  .00014575  00000+0  72814-3 0  9997
2 58701  97.4571 102.5391 0010015  28.1614 332.0159 15.17528954 42103
TIANMU-1 17             
1 58702U 24004C   24283.56485087  .00014162  00000+0  70883-3 0  9996
2 58702  97.4613 102.7147 0007872  25.3679 334.7939 15.17487039 42090
TIANMU-1 18             
1 58703U 24004D   24283.54768562  .00013391  00000+0  67130-3 0  9991
2 58703  97.4627 102.7945 0006912  17.2272 342.9195 15.17451624 42091
INSAT-3DS               
1 58990U 24033A   24283.41856054 -.00000149  00000+0  00000+0 0  9998
2 58990   0.0175 117.6449 0001443  74.1440  59.5158  1.00272627 40891
METEOR-M2 4             
1 59051U 24039A   24283.45495864  .00000342  00000+0  17317-3 0  9992
2 59051  98.6129 242.6098 0007589 145.1920 214.9756 14.22280042 31732
GOES 19                 
1 60133U 24119A   24282.45484584 -.00000173  00000+0  00000+0 0  9990
2 60133   0.0409  37.6777 0001304  61.8794 352.2976  1.00271032   783
